ONEWEB-0205             
1 48226U 21031S   24145.34333636  .00000262  00000+0  67114-3 0  9997
2 48226  87.8962  79.6849 0002112  73.8357 286.3005 13.14501637149230
ONEWEB-0206             
1 48227U 21031T   24145.84920363 -.00000163  00000+0 -47403-3 0  9993
2 48227  87.8958  79.5735 0001989  72.6764 287.4583 13.14501913149262
ONEWEB-0182             
1 48228U 21031U   24145.84443671 -.00000218  00000+0 -62302-3 0  9992
2 48228  87.8962  79.5998 0001561  69.0246 291.1051 13.14496910149475
ONEWEB-0186             
1 48229U 21031V   24145.85554593 -.00000077  00000+0 -24351-3 0  9995
2 48229  87.8963  79.5628 0002086  79.3734 280.7630 13.14501868149427
ONEWEB-0181             
1 48230U 21031W   24145.37662986 -.00000107  00000+0 -32310-3 0  9998
2 48230  87.8965  79.7276 0002182  80.3209 279.8167 13.14500848149205
ONEWEB-0188             
1 48231U 21031X   24145.33857845  .00000289  00000+0  74532-3 0  9996
2 48231  87.8963  79.7313 0002023  77.5752 282.5604 13.14501783149106
ONEWEB-0220             
1 48232U 21031Y   24145.30209710 -.00000333  00000+0 -93379-3 0  9998
2 48232  87.8955  79.7043 0002118  68.3069 291.8286 13.14501882149369
ONEWEB-0165             
1 48233U 21031Z   24145.86347531 -.00000047  00000+0 -16157-3 0  9995
2 48233  87.8964  79.6073 0002174  78.7804 281.3570 13.14503320149398
